NORAD_CAT_ID,OBJECT_NAME,OBJECT_TYPE,EPOCH,MEAN_MOTION,ECCENTRICITY,INCLINATION,RA_OF_ASC_NODE,ARG_OF_PERICENTER,MEAN_ANOMALY,BSTAR,MEAN_MOTION_DOT,MEAN_MOTION_DDOT,TLE_LINE0,TLE_LINE1,TLE_LINE2,SEMIMAJOR_AXIS,PERIOD,APOGEE,PERIGEE,DECAYED
54058.0,STARLINK-5167,PAYLOAD,2024-06-08 11:19:21,15.08847313,0.0002955,53.2117,333.6918,82.6747,277.458,0.00012024,1.626e-05,0.0,0 STARLINK-5167,1 54058U 22136H   24160.47178128  .00001626  00000-0  12024-3 0  9994,2 54058  53.2117 333.6918 0002955  82.6747 277.4580 15.08847313 90340,6917.858,95.437,541.767,537.679,0.0
54058.0,STARLINK-5167,PAYLOAD,2024-06-08 20:51:40,15.08841305,0.0001645,53.214,331.9063,84.2917,275.8263,3.3411e-05,2.44e-06,0.0,0 STARLINK-5167,1 54058U 22136H   24160.86922259  .00000244  00000-0  33411-4 0  9998,2 54058  53.2140 331.9063 0001645  84.2917 275.8263 15.08841305 90884,6917.876,95.437,540.879,538.603,0.0
54058.0,STARLINK-5167,PAYLOAD,2024-06-09 04:48:35,15.08847721,0.0001503,53.2147,330.4189,86.3008,273.8156,9.8314e-05,1.277e-05,0.0,0 STARLINK-5167,1 54058U 22136H   24161.20041622  .00001277  00000-0  98314-4 0  9993,2 54058  53.2147 330.4189 0001503  86.3008 273.8156 15.08847721 90934,6917.857,95.437,540.762,538.682,0.0
54058.0,STARLINK-5167,PAYLOAD,2024-06-09 20:42:30,15.08816021,0.0001182,53.2184,327.4457,83.5811,276.5316,-0.00012942,-2.346e-05,0.0,0 STARLINK-5167,1 54058U 22136H   24161.86284802 -.00002346  00000-0 -12942-3 0  9996,2 54058  53.2184 327.4457 0001182  83.5811 276.5316 15.08816021 91032,6917.954,95.439,540.636,539.001,0.0
54058.0,STARLINK-5167,PAYLOAD,2024-06-10 11:00:57,15.08836209,0.0001311,53.2151,324.7688,84.9702,275.144,0.00011993,1.621e-05,0.0,0 STARLINK-5167,1 54058U 22136H   24162.45899425  .00001621  00000-0  11993-3 0  9993,2 54058  53.2151 324.7688 0001311  84.9702 275.1440 15.08836209 91123,6917.892,95.438,540.664,538.85,0.0
54058.0,STARLINK-5167,PAYLOAD,2024-06-10 17:22:28,15.0884953,0.0001134,53.2164,323.5795,83.4528,276.6593,0.00023582,3.468e-05,0.0,0 STARLINK-5167,1 54058U 22136H   24162.72394458  .00003468  00000-0  23582-3 0  9997,2 54058  53.2164 323.5795 0001134  83.4528 276.6593 15.08849530 91166,6917.851,95.437,540.501,538.932,0.0
54058.0,STARLINK-5167,PAYLOAD,2024-06-11 14:02:30,15.08838924,7.65e-05,53.2195,319.7167,23.2057,336.8969,0.00042378,6.463e-05,0.0,0 STARLINK-5167,1 54058U 22136H   24163.58507270  .00006463  00000-0  42378-3 0  9992,2 54058  53.2195 319.7167 0000765  23.2057 336.8969 15.08838924 90810,6917.884,95.438,540.278,539.219,0.0
54058.0,STARLINK-5167,PAYLOAD,2024-06-11 17:13:16,15.0884374,8.46e-05,53.2174,319.1194,79.5029,280.6059,0.00041448,6.315e-05,0.0,0 STARLINK-5167,1 54058U 22136H   24163.71755040  .00006315  00000-0  41448-3 0  9990,2 54058  53.2174 319.1194 0000846  79.5029 280.6059 15.08843740 91318,6917.869,95.437,540.319,539.149,0.0
54058.0,STARLINK-5167,PAYLOAD,2024-06-12 17:04:03,15.08841914,7.94e-05,53.2181,314.6595,71.2073,288.9005,-7.4141e-05,-1.467e-05,0.0,0 STARLINK-5167,1 54058U 22136H   24164.71115404 -.00001467  00000-0 -74141-4 0  9997,2 54058  53.2181 314.6595 0000794  71.2073 288.9005 15.08841914 91460,6917.875,95.437,540.289,539.19,0.0
54058.0,STARLINK-5167,PAYLOAD,2024-06-13 13:44:04,15.08841683,5.81e-05,53.2173,310.7959,69.6346,290.4708,-3.4153e-05,-8.31e-06,0.0,0 STARLINK-5167,1 54058U 22136H   24165.57227221 -.00000831  00000-0 -34153-4 0  9996,2 54058  53.2173 310.7959 0000581  69.6346 290.4708 15.08841683 91113,6917.875,95.437,540.142,539.338,0.0
54058.0,STARLINK-5167,PAYLOAD,2024-06-13 18:30:13,15.08846507,7.62e-05,53.2181,309.9012,90.0666,270.0414,6.6984e-05,7.79e-06,0.0,0 STARLINK-5167,1 54058U 22136H   24165.77098552  .00000779  00000-0  66984-4 0  9997,2 54058  53.2181 309.9012 0000762  90.0666 270.0414 15.08846507 91147,6917.86,95.437,540.253,539.198,0.0
54058.0,STARLINK-5167,PAYLOAD,2024-06-14 13:34:51,15.08833294,9.2e-05,53.2179,306.3333,86.1185,273.9913,0.0001184,1.597e-05,0.0,0 STARLINK-5167,1 54058U 22136H   24166.56587356  .00001597  00000-0  11840-3 0  9999,2 54058  53.2179 306.3333 0000920  86.1185 273.9913 15.08833294 91740,6917.901,95.438,540.402,539.129,0.0
54058.0,STARLINK-5167,PAYLOAD,2024-06-14 18:21:00,15.08845327,7.19e-05,53.2173,305.4408,82.5346,277.5728,0.00021796,3.183e-05,0.0,0 STARLINK-5167,1 54058U 22136H   24166.76458582  .00003183  00000-0  21796-3 0  9993,2 54058  53.2173 305.4408 0000719  82.5346 277.5728 15.08845327 91296,6917.864,95.437,540.227,539.232,0.0
54058.0,STARLINK-5167,PAYLOAD,2024-06-15 13:25:37,15.08844,9.1e-05,53.2174,301.8724,71.5585,288.5506,1.4885e-05,-5.1e-07,0.0,0 STARLINK-5167,1 54058U 22136H   24167.55946750 -.00000051  00000-0  14885-4 0  9994,2 54058  53.2174 301.8724 0000910  71.5585 288.5506 15.08844000 91411,6917.868,95.437,540.363,539.104,0.0
54058.0,STARLINK-5167,PAYLOAD,2024-06-15 16:36:24,15.08844937,9.02e-05,53.2173,301.2778,66.4221,293.6866,3.3424e-05,2.44e-06,0.0,0 STARLINK-5167,1 54058U 22136H   24167.69194655  .00000244  00000-0  33424-4 0  9991,2 54058  53.2173 301.2778 0000902  66.4221 293.6866 15.08844937 91431,6917.865,95.437,540.354,539.106,0.0
54058.0,STARLINK-5167,PAYLOAD,2024-06-16 14:51:48,15.08840588,6.77e-05,53.2166,297.1142,76.1013,284.0054,0.00015115,2.119e-05,0.0,0 STARLINK-5167,1 54058U 22136H   24168.61930738  .00002119  00000-0  15115-3 0  9993,2 54058  53.2166 297.1142 0000677  76.1013 284.0054 15.08840588 91573,6917.879,95.438,540.212,539.275,0.0
54058.0,STARLINK-5167,PAYLOAD,2024-06-16 18:02:34,15.08849626,7.31e-05,53.2164,296.519,91.6298,268.4777,4e-05,3.49e-06,0.0,0 STARLINK-5167,1 54058U 22136H   24168.75178250  .00000349  00000-0  40000-4 0  9996,2 54058  53.2164 296.5190 0000731  91.6298 268.4777 15.08849626 91597,6917.851,95.437,540.222,539.21,0.0
54058.0,STARLINK-5167,PAYLOAD,2024-06-17 14:42:35,15.08842723,0.0001304,53.2177,292.6524,97.3568,262.7573,4.4949e-05,4.28e-06,0.0,0 STARLINK-5167,1 54058U 22136H   24169.61290752  .00000428  00000-0  44949-4 0  9998,2 54058  53.2177 292.6524 0001304  97.3568 262.7573 15.08842723 91726,6917.872,95.437,540.639,538.835,0.0
54058.0,STARLINK-5167,PAYLOAD,2024-06-18 01:50:17,15.08837857,0.0001228,53.218,290.5711,102.9696,257.1433,4.4734e-05,4.24e-06,0.0,0 STARLINK-5167,1 54058U 22136H   24170.07659043  .00000424  00000-0  44734-4 0  9990,2 54058  53.2180 290.5711 0001228 102.9696 257.1433 15.08837857 92271,6917.887,95.438,540.601,538.902,0.0
54058.0,STARLINK-5167,PAYLOAD,2024-06-18 14:33:22,15.08840755,0.0001165,53.22,288.1936,103.5921,256.5201,2.5988e-05,1.26e-06,0.0,0 STARLINK-5167,1 54058U 22136H   24170.60650881  .00000126  00000-0  25988-4 0  9999,2 54058  53.2200 288.1936 0001165 103.5921 256.5201 15.08840755 91876,6917.878,95.438,540.549,538.937,0.0
54058.0,STARLINK-5167,PAYLOAD,2024-06-19 12:48:46,15.08828901,9.63e-05,53.2186,284.0316,101.6918,258.4182,7.6454e-05,9.29e-06,0.0,0 STARLINK-5167,1 54058U 22136H   24171.53387625  .00000929  00000-0  76454-4 0  9990,2 54058  53.2186 284.0316 0000963 101.6918 258.4182 15.08828901 92493,6917.914,95.438,540.446,539.113,0.0
54058.0,STARLINK-5167,PAYLOAD,2024-06-19 14:24:09,15.08833016,0.0001119,53.2174,283.732,97.3082,262.8037,4.7983e-05,4.76e-06,0.0,0 STARLINK-5167,1 54058U 22136H   24171.60011511  .00000476  00000-0  47983-4 0  9998,2 54058  53.2174 283.7320 0001119  97.3082 262.8037 15.08833016 92028,6917.902,95.438,540.541,538.993,0.0
54058.0,STARLINK-5167,PAYLOAD,2024-06-20 12:39:33,15.08835557,0.0001016,53.2169,279.5671,100.5817,259.529,4.2861e-05,3.94e-06,0.0,0 STARLINK-5167,1 54058U 22136H   24172.52747629  .00000394  00000-0  42861-4 0  9995,2 54058  53.2169 279.5671 0001016 100.5817 259.5290 15.08835557 92164,6917.894,95.438,540.462,539.056,0.0
54058.0,STARLINK-5167,PAYLOAD,2024-06-20 23:47:15,15.08846459,8.91e-05,53.218,277.4916,97.2245,262.8849,8.9465e-05,1.137e-05,0.0,0 STARLINK-5167,1 54058U 22136H   24172.99114797  .00001137  00000-0  89465-4 0  9997,2 54058  53.2180 277.4916 0000891  97.2245 262.8849 15.08846459 92714,6917.861,95.437,540.342,539.109,0.0
54058.0,STARLINK-5167,PAYLOAD,2024-06-21 12:30:21,15.08832132,0.0001255,53.2196,275.117,109.573,250.5397,8.4494e-05,1.057e-05,0.0,0 STARLINK-5167,1 54058U 22136H   24173.52108032  .00001057  00000-0  84494-4 0  9990,2 54058  53.2196 275.1170 0001255 109.5730 250.5397 15.08832132 92792,6917.904,95.438,540.638,538.901,0.0
54058.0,STARLINK-5167,PAYLOAD,2024-06-22 13:56:31,15.08837338,0.0001019,53.2181,270.3517,102.1865,257.9242,6.0286e-05,6.72e-06,0.0,0 STARLINK-5167,1 54058U 22136H   24174.58091909  .00000672  00000-0  60286-4 0  9996,2 54058  53.2181 270.3517 0001019 102.1865 257.9242 15.08837338 92472,6917.889,95.438,540.458,539.049,0.0
54058.0,STARLINK-5167,PAYLOAD,2024-06-23 12:11:55,15.08840297,9.38e-05,53.2173,266.1879,89.2651,270.8449,8.8409e-05,1.12e-05,0.0,0 STARLINK-5167,1 54058U 22136H   24175.50827746  .00001120  00000-0  88409-4 0  9991,2 54058  53.2173 266.1879 0000938  89.2651 270.8449 15.08840297 92611,6917.879,95.438,540.393,539.096,0.0
54058.0,STARLINK-5167,PAYLOAD,2024-06-23 15:22:41,15.08844201,9.84e-05,53.2176,265.593,93.1212,266.9892,0.00012084,1.636e-05,0.0,0 STARLINK-5167,1 54058U 22136H   24175.64075406  .00001636  00000-0  12084-3 0  9991,2 54058  53.2176 265.5930 0000984  93.1212 266.9892 15.08844201 93116,6917.868,95.437,540.413,539.052,0.0
54058.0,STARLINK-5167,PAYLOAD,2024-06-24 12:02:41,15.0884453,9.72e-05,53.2172,261.7272,98.9951,261.1152,0.00010984,1.461e-05,0.0,0 STARLINK-5167,1 54058U 22136H   24176.50187228  .00001461  00000-0  10984-3 0  9996,2 54058  53.2172 261.7272 0000972  98.9951 261.1152 15.08844530 92760,6917.867,95.437,540.404,539.059,0.0
54058.0,STARLINK-5167,PAYLOAD,2024-06-25 11:53:28,15.08844264,9.72e-05,53.2169,257.2646,91.262,268.8483,2.3634e-05,8.8e-07,0.0,0 STARLINK-5167,1 54058U 22136H   24177.49547290  .00000088  00000-0  23634-4 0  9995,2 54058  53.2169 257.2646 0000972  91.2620 268.8483 15.08844264 93395,6917.867,95.437,540.405,539.06,0.0
